start=new Date('2022-01-30T00:00:00.000Z').valueOf();
sats=[{"MEAN_MOTION_DOT":"0.00001718","COUNTRY_CODE":"US","EPOCH":"2022-01-29T18:55:20.807328","APOAPSIS":"548.599","ECCENTRICITY":"0.00020350","CLASSIFICATION_TYPE":"U","TIME_SYSTEM":"UTC","ARG_OF_PERICENTER":"81.9913","RCS_SIZE":"LARGE","REV_AT_EPOCH":"8127","RA_OF_ASC_NODE":"209.9372","CENTER_NAME":"EARTH","LAUNCH_DATE":"2020-08-18","GP_ID":"194910713","SITE":"AFETR","SEMIMAJOR_AXIS":"6925.325","OBJECT_NAME":"STARLINK-1588","REF_FRAME":"TEME","OBJECT_ID":"2020-057B","ELEMENT_SET_NO":"999","BSTAR":"0.00013420000000","FILE":"3287083","MEAN_MOTION":"15.06407651","OBJECT_TYPE":"PAYLOAD","TLE_LINE1":"1 46118U 20057B   22029.78843527  .00001718  00000-0  13420-3 0  9993","NORAD_CAT_ID":"46118","EPHEMERIS_TYPE":"0","TLE_LINE2":"2 46118  53.0530 209.9372 0002035  81.9913 278.1306 15.06407651 81271","MEAN_MOTION_DDOT":"0.0000000000000","DECAY_DATE":null,"MEAN_ANOMALY":"278.1306","PERIOD":"95.592","INCLINATION":"53.0530","MEAN_ELEMENT_THEORY":"SGP4","PERIAPSIS":"545.781"},{"TIME_SYSTEM":"UTC","ARG_OF_PERICENTER":"80.6295","RCS_SIZE":"LARGE","REV_AT_EPOCH":"8127","RA_OF_ASC_NODE":"209.4009","CENTER_NAME":"EARTH","MEAN_MOTION_DOT":"0.00001953","COUNTRY_CODE":"US","EPOCH":"2022-01-29T21:50:29.871744","ECCENTRICITY":"0.00019660","APOAPSIS":"548.553","CLASSIFICATION_TYPE":"U","NORAD_CAT_ID":"46119","EPHEMERIS_TYPE":"0","TLE_LINE2":"2 46119  53.0545 209.4009 0001966  80.6295 279.4916 15.06407069 81275","MEAN_MOTION_DDOT":"0.0000000000000","DECAY_DATE":null,"PERIOD":"95.592","MEAN_ANOMALY":"279.4916","INCLINATION":"53.0545","MEAN_ELEMENT_THEORY":"SGP4","PERIAPSIS":"545.830","LAUNCH_DATE":"2020-08-18","GP_ID":"194910964","SITE":"AFETR","SEMIMAJOR_AXIS":"6925.327","OBJECT_NAME":"STARLINK-1593","REF_FRAME":"TEME","OBJECT_ID":"2020-057C","ELEMENT_SET_NO":"999","BSTAR":"0.00014993000000","FILE":"3287083","MEAN_MOTION":"15.06407069","OBJECT_TYPE":"PAYLOAD","TLE_LINE1":"1 46119U 20057C   22029.91006796  .00001953  00000-0  14993-3 0  9995"},{"MEAN_MOTION_DDOT":"0.0000000000000","DECAY_DATE":null,"MEAN_ANOMALY":"279.7002","PERIOD":"95.593","INCLINATION":"53.0539","PERIAPSIS":"545.883","MEAN_ELEMENT_THEORY":"SGP4","NORAD_CAT_ID":"46120","EPHEMERIS_TYPE":"0","TLE_LINE2":"2 46120  53.0539 209.7572 0001968  80.4210 279.7002 15.06389413 81287","OBJECT_ID":"2020-057D","ELEMENT_SET_NO":"999","FILE":"3287083","BSTAR":"-0.00008821700000","MEAN_MOTION":"15.06389413","OBJECT_TYPE":"PAYLOAD","TLE_LINE1":"1 46120U 20057D   22029.82899598 -.00001595  00000-0 -88217-4 0  9992","LAUNCH_DATE":"2020-08-18","GP_ID":"194912215","REF_FRAME":"TEME","SITE":"AFETR","SEMIMAJOR_AXIS":"6925.381","OBJECT_NAME":"STARLINK-1601","RA_OF_ASC_NODE":"209.7572","CENTER_NAME":"EARTH","TIME_SYSTEM":"UTC","ARG_OF_PERICENTER":"80.4210","RCS_SIZE":"LARGE","REV_AT_EPOCH":"8128","EPOCH":"2022-01-29T19:53:45.252672","APOAPSIS":"548.609","ECCENTRICITY":"0.00019680","CLASSIFICATION_TYPE":"U","MEAN_MOTION_DOT":"-0.00001595","COUNTRY_CODE":"US"},{"OBJECT_ID":"2020-057E","ELEMENT_SET_NO":"999","FILE":"3287083","BSTAR":"-0.00036191000000","OBJECT_TYPE":"PAYLOAD","MEAN_MOTION":"15.06382710","TLE_LINE1":"1 46121U 20057E   22029.86402124 -.00005666  00000-0 -36191-3 0  9998","LAUNCH_DATE":"2020-08-18","GP_ID":"194911966","SITE":"AFETR","OBJECT_NAME":"STARLINK-1602","SEMIMAJOR_AXIS":"6925.402","REF_FRAME":"TEME","MEAN_MOTION_DDOT":"0.0000000000000","DECAY_DATE":null,"MEAN_ANOMALY":"276.7502","PERIOD":"95.593","INCLINATION":"53.0530","PERIAPSIS":"545.868","MEAN_ELEMENT_THEORY":"SGP4","NORAD_CAT_ID":"46121","TLE_LINE2":"2 46121  53.0530 189.6032 0002019  83.3717 276.7502 15.06382710 80282","EPHEMERIS_TYPE":"0","EPOCH":"2022-01-29T20:44:11.435136","APOAPSIS":"548.665","ECCENTRICITY":"0.00020190","CLASSIFICATION_TYPE":"U","MEAN_MOTION_DOT":"-0.00005666","COUNTRY_CODE":"US","RA_OF_ASC_NODE":"189.6032","CENTER_NAME":"EARTH","TIME_SYSTEM":"UTC","ARG_OF_PERICENTER":"83.3717","RCS_SIZE":"LARGE","REV_AT_EPOCH":"8028"},{"MEAN_MOTION_DDOT":"0.0000000000000","INCLINATION":"53.0528","MEAN_ELEMENT_THEORY":"SGP4","PERIAPSIS":"545.743","DECAY_DATE":null,"MEAN_ANOMALY":"272.4758","PERIOD":"95.592","NORAD_CAT_ID":"46122","TLE_LINE2":"2 46122  53.0528 169.8467 0002082  87.6469 272.4758 15.06409422 81819","EPHEMERIS_TYPE":"0","ELEMENT_SET_NO":"999","OBJECT_ID":"2020-057F","MEAN_MOTION":"15.06409422","OBJECT_TYPE":"PAYLOAD","TLE_LINE1":"1 46122U 20057F   22029.80685568  .00002935  00000-0  21583-3 0  9991","FILE":"3287083","BSTAR":"0.00021583000000","LAUNCH_DATE":"2020-08-18","GP_ID":"194911213","SEMIMAJOR_AXIS":"6925.320","SITE":"AFETR","OBJECT_NAME":"STARLINK-1604","REF_FRAME":"TEME","CENTER_NAME":"EARTH","RA_OF_ASC_NODE":"169.8467","RCS_SIZE":"LARGE","REV_AT_EPOCH":"8181","TIME_SYSTEM":"UTC","ARG_OF_PERICENTER":"87.6469","EPOCH":"2022-01-29T19:21:52.330752","CLASSIFICATION_TYPE":"U","APOAPSIS":"548.627","ECCENTRICITY":"0.00020820","MEAN_MOTION_DOT":"0.00002935","COUNTRY_CODE":"US"},{"BSTAR":"0.00015938000000","FILE":"3287083","MEAN_MOTION":"15.06410008","OBJECT_TYPE":"PAYLOAD","TLE_LINE1":"1 46123U 20057G   22029.79211309  .00002094  00000-0  15938-3 0  9991","OBJECT_ID":"2020-057G","ELEMENT_SET_NO":"999","SITE":"AFETR","OBJECT_NAME":"STARLINK-1605","SEMIMAJOR_AXIS":"6925.318","REF_FRAME":"TEME","LAUNCH_DATE":"2020-08-18","GP_ID":"194911464","DECAY_DATE":null,"PERIOD":"95.592","MEAN_ANOMALY":"285.3353","INCLINATION":"53.0552","MEAN_ELEMENT_THEORY":"SGP4","PERIAPSIS":"545.920","MEAN_MOTION_DDOT":"0.0000000000000","NORAD_CAT_ID":"46123","EPHEMERIS_TYPE":"0","TLE_LINE2":"2 46123  53.0552 169.9218 0001823  74.7837 285.3353 15.06410008 81838","ECCENTRICITY":"0.00018230","APOAPSIS":"548.445","CLASSIFICATION_TYPE":"U","EPOCH":"2022-01-29T19:00:38.570976","COUNTRY_CODE":"US","MEAN_MOTION_DOT":"0.00002094","RA_OF_ASC_NODE":"169.9218","CENTER_NAME":"EARTH","TIME_SYSTEM":"UTC","ARG_OF_PERICENTER":"74.7837","RCS_SIZE":"LARGE","REV_AT_EPOCH":"8183"},{"NORAD_CAT_ID":"46124","EPHEMERIS_TYPE":"0","TLE_LINE2":"2 46124  53.0551 169.8985 0002037  87.8269 272.2953 15.06402397 80562","MEAN_MOTION_DDOT":"0.0000000000000","DECAY_DATE":null,"PERIOD":"95.592","MEAN_ANOMALY":"272.2953","INCLINATION":"53.0551","MEAN_ELEMENT_THEORY":"SGP4","PERIAPSIS":"545.796","LAUNCH_DATE":"2020-08-18","GP_ID":"194911716","REF_FRAME":"TEME","SITE":"AFETR","SEMIMAJOR_AXIS":"6925.341","OBJECT_NAME":"STARLINK-1614","OBJECT_ID":"2020-057H","ELEMENT_SET_NO":"999","FILE":"3287083","BSTAR":"-0.00001919700000","MEAN_MOTION":"15.06402397","OBJECT_TYPE":"PAYLOAD","TLE_LINE1":"1 46124U 20057H   22029.79948642 -.00000568  00000-0 -19197-4 0  9997","TIME_SYSTEM":"UTC","ARG_OF_PERICENTER":"87.8269","RCS_SIZE":"LARGE","REV_AT_EPOCH":"8056","RA_OF_ASC_NODE":"169.8985","CENTER_NAME":"EARTH","MEAN_MOTION_DOT":"-0.00000568","COUNTRY_CODE":"US","EPOCH":"2022-01-29T19:11:15.626688","APOAPSIS":"548.617","ECCENTRICITY":"0.00020370","CLASSIFICATION_TYPE":"U"},{"ELEMENT_SET_NO":"999","OBJECT_ID":"2020-057J","MEAN_MOTION":"15.06401871","OBJECT_TYPE":"PAYLOAD","TLE_LINE1":"1 46125U 20057J   22029.84740133  .00001130  00000-0  94724-4 0  9992","BSTAR":"0.00009472400000","FILE":"3287083","LAUNCH_DATE":"2020-08-18","GP_ID":"194912466","SITE":"AFETR","REF_FRAME":"TEME","SEMIMAJOR_AXIS":"6925.343","OBJECT_NAME":"STARLINK-1618","MEAN_MOTION_DDOT":"0.0000000000000","INCLINATION":"53.0548","PERIAPSIS":"545.821","MEAN_ELEMENT_THEORY":"SGP4","DECAY_DATE":null,"PERIOD":"95.592","MEAN_ANOMALY":"280.9416","NORAD_CAT_ID":"46125","TLE_LINE2":"2 46125  53.0548 209.6587 0002002  79.1799 280.9416 15.06401871 81268","EPHEMERIS_TYPE":"0","EPOCH":"2022-01-29T20:20:15.474912","CLASSIFICATION_TYPE":"U","APOAPSIS":"548.594","ECCENTRICITY":"0.00020020","MEAN_MOTION_DOT":"0.00001130","COUNTRY_CODE":"US","CENTER_NAME":"EARTH","RA_OF_ASC_NODE":"209.6587","RCS_SIZE":"LARGE","REV_AT_EPOCH":"8126","TIME_SYSTEM":"UTC","ARG_OF_PERICENTER":"79.1799"},{"NORAD_CAT_ID":"46126","TLE_LINE2":"2 46126  53.0621 209.4721 0002707  83.8263 276.3035 15.06397580 80018","EPHEMERIS_TYPE":"0","MEAN_MOTION_DDOT":"0.0000000000000","DECAY_DATE":null,"PERIOD":"95.592","MEAN_ANOMALY":"276.3035","INCLINATION":"53.0621","PERIAPSIS":"545.346","MEAN_ELEMENT_THEORY":"SGP4","LAUNCH_DATE":"2020-08-18","GP_ID":"194910714","SEMIMAJOR_AXIS":"6925.356","SITE":"AFETR","REF_FRAME":"TEME","OBJECT_NAME":"STARLINK-1619","OBJECT_ID":"2020-057K","ELEMENT_SET_NO":"999","BSTAR":"0.00012033000000","FILE":"3287083","MEAN_MOTION":"15.06397580","OBJECT_TYPE":"PAYLOAD","TLE_LINE1":"1 46126U 20057K   22029.88796992  .00001511  00000-0  12033-3 0  9996","TIME_SYSTEM":"UTC","ARG_OF_PERICENTER":"83.8263","RCS_SIZE":"LARGE","REV_AT_EPOCH":"8001","RA_OF_ASC_NODE":"209.4721","CENTER_NAME":"EARTH","MEAN_MOTION_DOT":"0.00001511","COUNTRY_CODE":"US","EPOCH":"2022-01-29T21:18:40.601088","ECCENTRICITY":"0.00027070","APOAPSIS":"549.096","CLASSIFICATION_TYPE":"U"},{"OBJECT_ID":"2020-057L","ELEMENT_SET_NO":"999","FILE":"3287083","BSTAR":"0.00004603000000","TLE_LINE1":"1 46127U 20057L   22029.81238857  .00000404  00000-0  46030-4 0  9996","OBJECT_TYPE":"PAYLOAD","MEAN_MOTION":"15.06411384","GP_ID":"194910965","LAUNCH_DATE":"2020-08-18","SITE":"AFETR","OBJECT_NAME":"STARLINK-1621","SEMIMAJOR_AXIS":"6925.314","REF_FRAME":"TEME","MEAN_MOTION_DDOT":"0.0000000000000","PERIOD":"95.591","MEAN_ANOMALY":"277.3728","DECAY_DATE":null,"MEAN_ELEMENT_THEORY":"SGP4","PERIAPSIS":"545.706","INCLINATION":"53.0536","EPHEMERIS_TYPE":"0","TLE_LINE2":"2 46127  53.0536 189.8290 0002126  82.7502 277.3728 15.06411384 80272","NORAD_CAT_ID":"46127","EPOCH":"2022-01-29T19:29:50.372448","ECCENTRICITY":"0.00021260","APOAPSIS":"548.651","CLASSIFICATION_TYPE":"U","MEAN_MOTION_DOT":"0.00000404","COUNTRY_CODE":"US","RA_OF_ASC_NODE":"189.8290","CENTER_NAME":"EARTH","ARG_OF_PERICENTER":"82.7502","TIME_SYSTEM":"UTC","REV_AT_EPOCH":"8027","RCS_SIZE":"LARGE"}];
